     2              NAVIGATION DATA                         RINEX VERSION / TYPE
CCRINEXN V1.6.0 UX  CDDIS               06-JUN-24 06:53     PGM / RUN BY / DATE 
IGS BROADCAST EPHEMERIS FILE                                COMMENT             
    0.2328D-07  0.1490D-07 -0.1192D-06 -0.5960D-07          ION ALPHA           
    0.1331D+06  0.1311D+06 -0.2621D+06  0.0000D+00          ION BETA            
    0.000000000000D+00 0.532907051820D-14   589824     2317 DELTA-UTC: A0,A1,T,W
    18                                                      LEAP SECONDS        
                                                            END OF HEADER       
 1 24  6  6  0  0  0.0 0.264080706984D-03-0.579802872380D-11 0.000000000000D+00
    0.980000000000D+02 0.911562500000D+02 0.529629204039D-08-0.309425053403D+01
    0.464357435703D-05 0.133836643072D-01 0.114310532808D-04 0.515377380371D+04
    0.345600000000D+06 0.912696123123D-07-0.182887799405D+00-0.128522515297D-06
    0.954789061585D+00 0.154031250000D+03 0.103187499015D+01-0.742816655581D-08
   -0.410374236591D-09 0.100000000000D+01 0.231700000000D+04 0.000000000000D+00
    0.280000000000D+01 0.630000000000D+02-0.195577740669D-07 0.980000000000D+02
    0.338418000000D+06 0.400000000000D+01 0.000000000000D+00 0.000000000000D+00
 2 24  6  6  0  0  0.0-0.423050019890D-03 0.693489710102D-11 0.000000000000D+00
    0.210000000000D+02-0.662812500000D+02 0.454197490577D-08 0.197271890364D+01
   -0.363402068615D-05 0.159901160514D-01-0.114738941193D-05 0.515370210457D+04
    0.345600000000D+06 0.260770320892D-06 0.181132623063D+01 0.111758708954D-07
    0.967092228965D+00 0.404125000000D+03-0.118021898833D+01-0.825034365993D-08
   -0.177864551630D-09 0.100000000000D+01 0.231700000000D+04 0.000000000000D+00
    0.200000000000D+01 0.000000000000D+00-0.176951289177D-07 0.210000000000D+02
    0.338418000000D+06 0.400000000000D+01 0.000000000000D+00 0.000000000000D+00
 3 24  6  6  0  0  0.0 0.399666838348D-03 0.184172677109D-10 0.000000000000D+00
    0.110000000000D+02-0.136843750000D+03 0.375015620906D-08-0.156467638456D+01
   -0.695139169693D-05 0.556844030507D-02 0.102985650301D-04 0.515372354889D+04
    0.345600000000D+06 0.106170773506D-06 0.294621887471D+01 0.726431608200D-07
    0.984955817763D+00 0.194031250000D+03 0.109333512644D+01-0.746531096017D-08
    0.209651589973D-09 0.100000000000D+01 0.231700000000D+04 0.000000000000D+00
    0.200000000000D+01 0.000000000000D+00 0.139698386192D-08 0.110000000000D+02
    0.338418000000D+06 0.400000000000D+01 0.000000000000D+00 0.000000000000D+00
 4 24  6  6  0  0  0.0 0.376989133656D-03 0.818545231596D-11 0.000000000000D+00
    0.177000000000D+03 0.531250000000D+01 0.473698302864D-08 0.141162620232D+01
    0.501051545143D-06 0.283356499858D-02 0.775791704655D-05 0.515373484421D+04
    0.345600000000D+06 0.106170773506D-06-0.225897669787D+01 0.428408384323D-07
    0.964858149712D+00 0.232125000000D+03-0.294926086510D+01-0.793318759196D-08
    0.516450083648D-09 0.100000000000D+01 0.231700000000D+04 0.000000000000D+00
    0.200000000000D+01 0.000000000000D+00-0.465661287308D-08 0.945000000000D+03
    0.338418000000D+06 0.400000000000D+01 0.000000000000D+00 0.000000000000D+00
 6 24  6  6  0  0  0.0 0.234483741224D-03-0.206910044653D-10 0.000000000000D+00
    0.980000000000D+02-0.779687500000D+02 0.408052711319D-08-0.228218751850D+00
   -0.418536365032D-05 0.296655588318D-02 0.320374965668D-06 0.515363091659D+04
    0.345600000000D+06 0.260770320892D-07 0.190989184156D+01-0.372529029846D-07
    0.989492350134D+00 0.382593750000D+03-0.694298437848D+00-0.817462622028D-08
   -0.660741808263D-10 0.100000000000D+01 0.231700000000D+04 0.000000000000D+00
    0.200000000000D+01 0.000000000000D+00 0.372529029846D-08 0.980000000000D+02
    0.338418000000D+06 0.400000000000D+01 0.000000000000D+00 0.000000000000D+00
 7 24  6  6  0  0  0.0-0.101663637906D-03 0.121644916362D-10 0.000000000000D+00
    0.110000000000D+02-0.106875000000D+02 0.516592946741D-08-0.110552675802D+01
   -0.448897480965D-06 0.185977969086D-01 0.558048486710D-05 0.515362211227D+04
    0.345600000000D+06 0.236555933952D-06-0.124584641501D+01 0.381842255592D-06
    0.949828196660D+00 0.264093750000D+03-0.211829419038D+01-0.826605860023D-08
   -0.541093967307D-09 0.100000000000D+01 0.231700000000D+04 0.000000000000D+00
    0.200000000000D+01 0.000000000000D+00-0.111758708954D-07 0.110000000000D+02
    0.338418000000D+06 0.400000000000D+01 0.000000000000D+00 0.000000000000D+00
 8 24  6  6  0  0  0.0 0.215650536120D-03 0.187583282241D-10 0.000000000000D+00
    0.280000000000D+02 0.157875000000D+03 0.460519182472D-08 0.174398547526D+01
    0.808946788311D-05 0.944882107433D-02 0.358186662197D-05 0.515364502335D+04
    0.345600000000D+06-0.108033418655D-06 0.813411006771D+00 0.838190317154D-07
    0.953166629845D+00 0.306000000000D+03 0.365092985143D+00-0.835499087605D-08
    0.252867675811D-09 0.100000000000D+01 0.231700000000D+04 0.000000000000D+00
    0.200000000000D+01 0.000000000000D+00 0.465661287308D-08 0.280000000000D+02
    0.339708000000D+06 0.400000000000D+01 0.000000000000D+00 0.000000000000D+00
 9 24  6  6  0  0  0.0 0.223710667342D-03 0.144382283907D-10 0.000000000000D+00
    0.300000000000D+02 0.271875000000D+01 0.476019828137D-08 0.221774174489D+01
    0.210478901863D-06 0.272927724291D-02 0.812672078609D-05 0.515365015793D+04
    0.345600000000D+06 0.651925802231D-07-0.231857655535D+01-0.894069671631D-07
    0.958512909316D+00 0.217375000000D+03 0.197656836922D+01-0.789175729480D-08
    0.523236080597D-09 0.100000000000D+01 0.231700000000D+04 0.000000000000D+00
    0.200000000000D+01 0.000000000000D+00 0.931322574616D-09 0.300000000000D+02
    0.338418000000D+06 0.400000000000D+01 0.000000000000D+00 0.000000000000D+00
10 24  6  6  0  0  0.0-0.368235632777D-04-0.773070496507D-11 0.000000000000D+00
    0.920000000000D+02-0.128500000000D+03 0.364158025786D-08-0.255802570943D+01
   -0.678189098835D-05 0.933735258877D-02 0.115297734737D-04 0.515369703865D+04
    0.345600000000D+06 0.949949026108D-07 0.294365346061D+01-0.162050127983D-06
    0.984616395899D+00 0.166781250000D+03-0.237338061187D+01-0.738959352052D-08
    0.237867050975D-09 0.100000000000D+01 0.231700000000D+04 0.000000000000D+00
    0.200000000000D+01 0.000000000000D+00 0.232830643654D-08 0.920000000000D+02
    0.338418000000D+06 0.400000000000D+01 0.000000000000D+00 0.000000000000D+00
12 24  6  6  0  0  0.0-0.511636026204D-03-0.329691829393D-11 0.000000000000D+00
    0.750000000000D+02 0.837187500000D+02 0.397980863215D-08-0.183895095599D+01
    0.436231493950D-05 0.876002805308D-02 0.109095126390D-04 0.515365240860D+04
    0.345600000000D+06 0.217929482460D-06-0.130308775449D+00 0.145286321640D-06
    0.962778124511D+00 0.170718750000D+03 0.145209356219D+01-0.756031491746D-08
   -0.425017703693D-09 0.100000000000D+01 0.231700000000D+04 0.000000000000D+00
    0.200000000000D+01 0.000000000000D+00-0.125728547573D-07 0.750000000000D+02
    0.338418000000D+06 0.400000000000D+01 0.000000000000D+00 0.000000000000D+00
14 24  6  6  0  0  0.0 0.418460462242D-03 0.920863385545D-11 0.000000000000D+00
    0.238000000000D+03 0.722812500000D+02 0.427339228966D-08-0.186335154156D+01
    0.371970236301D-05 0.455501745455D-02 0.118482857943D-04 0.515370536995D+04
    0.345600000000D+06-0.154599547386D-06-0.174866363566D+00-0.316649675369D-07
    0.946083375073D+00 0.144468750000D+03-0.290202910077D+01-0.766889086866D-08
   -0.395373611755D-09 0.100000000000D+01 0.231700000000D+04 0.000000000000D+00
    0.200000000000D+01 0.000000000000D+00-0.791624188423D-08 0.494000000000D+03
    0.338418000000D+06 0.400000000000D+01 0.000000000000D+00 0.000000000000D+00
15 24  6  6  0  0  0.0 0.166974496096D-03 0.420641299570D-11 0.000000000000D+00
    0.460000000000D+02 0.721875000000D+01 0.540808241120D-08 0.795365929818D+00
    0.555068254471D-06 0.156629368430D-01 0.948458909988D-05 0.515365791511D+04
    0.345600000000D+06-0.253319740295D-06-0.244672042124D+01 0.484287738800D-07
    0.935506788961D+00 0.190031250000D+03 0.131353506400D+01-0.851999774925D-08
    0.513949979508D-09 0.100000000000D+01 0.231700000000D+04 0.000000000000D+00
    0.200000000000D+01 0.000000000000D+00-0.102445483208D-07 0.460000000000D+02
    0.338418000000D+06 0.400000000000D+01 0.000000000000D+00 0.000000000000D+00
16 24  6  6  0  0  0.0-0.272208359093D-03 0.103455022327D-10 0.000000000000D+00
    0.142000000000D+03 0.103875000000D+03 0.390266256156D-08 0.265337242661D+01
    0.518374145031D-05 0.138281009859D-01 0.115260481834D-04 0.515358018684D+04
    0.345600000000D+06 0.428408384323D-07-0.112463816912D+00-0.206753611565D-06
    0.962262805765D+00 0.156312500000D+03 0.837511422032D+00-0.740995151137D-08
   -0.374301305437D-09 0.100000000000D+01 0.231700000000D+04 0.000000000000D+00
    0.200000000000D+01 0.000000000000D+00-0.102445483208D-07 0.142000000000D+03
    0.338418000000D+06 0.400000000000D+01 0.000000000000D+00 0.000000000000D+00
18 24  6  6  0  0  0.0-0.621070619672D-03-0.511590769747D-11 0.000000000000D+00
    0.590000000000D+02-0.919687500000D+02 0.441732685654D-08-0.214515759122D+00
   -0.470876693726D-05 0.416501052678D-02 0.113435089588D-05 0.515360712242D+04
    0.345600000000D+06 0.149011611938D-07 0.191383021014D+01-0.745058059692D-08
    0.974330238525D+00 0.362437500000D+03-0.305149836823D+01-0.832213236450D-08
   -0.867893294097D-10 0.100000000000D+01 0.231700000000D+04 0.000000000000D+00
    0.200000000000D+01 0.000000000000D+00-0.838190317154D-08 0.827000000000D+03
    0.338418000000D+06 0.400000000000D+01 0.000000000000D+00 0.000000000000D+00
